STARLINK-1146_new
1 15094C 20006BC  21326.15051184  .00004665  00000-0  31258-3 0  3266
2 15094  53.0560  88.0531 0001343  81.9672 212.0695 15.06388051    15
STARLINK-1146_old
1 25094C 20006BC  21325.12423605  .00000098  00000-0  65420-5 0  3258
2 25094  53.0555  92.6598 0001501  82.9407  42.4548 15.06407564    19
